#cP2023  5  8  0  0  0.00000000      96 ORBIT IGS20 HLM  IGS
## 2261  86400.00000000   900.00000000 60072 0.0000000000000
+   32   G01G02G03G04G05G06G07G08G09G10G11G12G13G14G15G16G17
+        G18G19G20G21G22G23G24G25G26G27G28G29G30G31G32  0  0
+          0  0  0  0  0  0  0  0  0  0  0  0  0  0  0  0  0
+          0  0  0  0  0  0  0  0  0  0  0  0  0  0  0  0  0
+          0  0  0  0  0  0  0  0  0  0  0  0  0  0  0  0  0
++         2  2  2  2  2  2  2  2  2  2  2  2  2  2  2  2  2
++         2  2  2  2  2  2  2  2  2  2  2  2  2  2  2  0  0
++         0  0  0  0  0  0  0  0  0  0  0  0  0  0  0  0  0
++         0  0  0  0  0  0  0  0  0  0  0  0  0  0  0  0  0
++         0  0  0  0  0  0  0  0  0  0  0  0  0  0  0  0  0
%c G  cc GPS ccc cccc cccc cccc cccc ccccc ccccc ccccc ccccc
%c cc cc ccc ccc cccc cccc cccc cccc ccccc ccccc ccccc ccccc
%f  1.2500000  1.025000000  0.00000000000  0.000000000000000
%f  0.0000000  0.000000000  0.00000000000  0.000000000000000
%i    0    0    0    0      0      0      0      0         0
%i    0    0    0    0      0      0      0      0         0
/* RAPID ORBIT COMBINATION FROM WEIGHTED AVERAGE OF:        
/* cod emr esa gfz grg jpl ngs sio usn whu                  
/* REFERENCED TO IGS TIME (IGST) AND TO WEIGHTED MEAN POLE: 
/* PCV:IGS20_2233 OL/AL:FES2014b NONE     Y  ORB:CMB CLK:CMB
*  2023  5  8 23 15  0.00000000
PG01  -1163.962388  15536.441613 -21785.689632    186.809894  6  8  5 101       
PG02 -24923.769097   6009.692586   7231.249663   -598.153119  9  6  6 102       
PG03   8847.451288  20363.504613 -14797.173694   -308.753059  7  8  5 116       
PG04    720.580066  25127.772846   8408.250019     36.553725  7  7  7 101       
PG05   7007.665942 -13449.607430  21623.987643   -126.454117  7  8  5  97       
PG06  25405.370196  -4575.258494  -6409.924854    588.126544  9  4  5  47       
PG07  14811.428487  10003.542376  20245.777762    182.900545  7  5  7  95       
PG08  -6416.481560  25253.646888   3836.140938   -121.497126  4  6  7 118       
PG09   8842.792812  18877.729628  16362.156044   -163.077668  7  6  6  93       
PG10 -22520.127854  -9337.407406 -10732.024190    -36.127220  8  6 10 121       
PG11  21977.392879 -12577.984817   7963.326288   -189.939829  7  5  6  86       
PG12  -4830.030767 -20487.327836 -16529.036553   -373.658580  8  7  7 103       
PG13  13259.389107 -20936.988232   9091.171749    517.199728  7  5  4 113       
PG14  22333.830466  11859.045731  -8356.325119     50.423409  9  8  4  82       
PG15   2943.540645 -26044.856165   2837.426466     37.787487  6  6  4  74       
PG16 -11400.497467   9754.880408  21621.565068   -502.649463  6  7  6 110       
PG17  14145.754033   4124.838637 -21670.490364    714.048556  7  6  5 107       
PG18 -17465.610046  -7383.174781  18659.647787   -258.205726  9  8  9  87       
PG19  16085.532377  -5121.879357 -20655.437405    314.304083  8  5  5 101       
PG20  15167.589827  -7991.370575  20274.678278    434.636543  8  5  6 104       
PG21  -9713.494738  17335.645415 -16626.885204    153.919544  4  8  8 100       
PG22 -15860.580590   9316.672555 -18648.584882    478.037354  6  8  8 111       
PG23 -20699.347396 -16766.404245    557.428288     22.669293  9  7 11 119       
PG24   4643.087766 -17916.870468 -19258.115931   -181.627596  8  7  6 118       
PG25 -15571.193526 -20196.109687  -8215.481999    441.437127  7  8  7 120       
PG26 -20441.664648    683.701892  17004.043899    241.023047  7  7  8 105       
PG27 -12598.665950  18673.227272  13484.336276     41.610704  3  6  7 119       
PG28 -24933.195824   3888.462927  -8302.680537     75.640316  7  9  7 110       
PG29  -4668.892795 -21638.253348  14559.665051   -598.702227  6  6  6 109       
PG30  23166.132774   2052.975842  13175.735860   -518.259536  8  5  4  87       
PG31 -25008.179377   9538.194781   1341.296785   -215.710959  5  8  7 104       
PG32 -15193.173030   -882.089931 -21580.138475   -471.761817  6  7  7 122       
*  2023  5  8 23 30  0.00000000
PG01  -3401.177747  16330.829796 -20909.394765    186.807213  7  8  6 107       
PG02 -24205.366355   5404.308994   9883.730365   -598.149967  9  6  6 125       
PG03   7364.524761  19371.484873 -16810.842906   -308.743711  7  9  5 124       
PG04    338.674196  25881.130442   5698.030101     36.562395  7  7  7 109       
PG05   9066.833070 -12003.680299  21719.212281   -126.455429  7  8  6  94       
PG06  24632.941836  -4102.858361  -9130.754467    588.126488  9  4  5  87       
PG07  12729.163185  10907.992617  21151.526631    182.892272  8  5  7  94       
PG08  -6630.317594  24611.947887   6625.447587   -121.498794  4  7  7 123       
PG09   8442.327287  20614.954126  14359.747863   -163.070224  7  6  6  89       
PG10 -23279.657381 -10139.390233  -8137.148614    -36.128963  8  5 10 128       
PG11  22766.639242 -12604.136442   5230.724361   -189.952115  8  5  5  82       
PG12  -3298.699560 -19291.590456 -18274.111178   -373.662802  8  8  6 114       
PG13  13140.135093 -19708.735010  11627.910010    517.204643  8  5  5 119       
PG14  22783.214197  12573.944635  -5685.997038     50.434748  9  8  5  70       
PG15   3300.075752 -25506.643071   5593.493674     37.790799  6  7  4  75       
PG16 -13235.017370   8029.148470  21328.351183   -502.646569  6  7  7 121       
PG17  13608.660131   6621.276262 -21389.804675    714.049756  7  6  6 111       
PG18 -15440.178365  -8260.625688  20014.553979   -258.220158  8  8  9 100       
PG19  15580.155442  -2807.315446 -21505.240765    314.308593  9  5  6 106       
PG20  17092.956501  -6808.807255  19122.936624    434.634739  8  5  7 105       
PG21 -11525.981357  17991.600261 -14645.920475    153.919305  5  8  9 100       
PG22 -15478.278290   7046.387210 -19908.166491    478.043353  6  8  8 115       
PG23 -20395.573643 -16798.755049   3418.176377     22.671980  9  7 11 115       
PG24   6576.256450 -18701.980865 -17833.567041   -181.640165  9  7  7 125       
PG25 -14609.130689 -19744.223217 -10758.588554    441.439530  7  7  7 116       
PG26 -21866.257456   -522.711376  15181.543765    241.022694  8  8  8 117       
PG27 -12570.644688  16942.286514  15626.632075     41.603456  3  6  7 129       
PG28 -24026.489655   3235.724242 -10867.708511     75.643915  6  9  7 126       
PG29  -4169.737726 -23109.465969  12272.686229   -598.703372  7  7  6 119       
PG30  21753.552043   2851.464261  15261.773826   -518.257694  8  6  3 100       
PG31 -25102.890184   9319.019554  -1476.007093   -215.711725  5  8  6 111       
PG32 -14873.961280  -3370.057340 -21575.042748   -471.770300  6  7  7 110       
*  2023  5  8 23 45  0.00000000
PG01  -5486.010610  17204.058658 -19680.836730    186.804519  7  7  6  95       
PG02 -23271.623518   4621.852710  12368.772326   -598.146374  9  5  6  97       
PG03   5655.400808  18343.487158 -18539.255455   -308.734265  8  9  5 125       
PG04     32.170998  26342.195641   2889.106864     36.571067  7  7  7  99       
PG05  11188.738071 -10674.089440  21434.764977   -126.456761  7  9  6  86       
PG06  23616.693019  -3460.084469 -11694.941734    588.126468 10  5  6  94       
PG07  10620.943413  11955.644367  21710.341038    182.884329  9  5  7  88       
PG08  -6859.555766  23670.246681   9297.798109   -121.499417  4  8  7 128       
PG09   8145.485196  22129.223522  12108.634867   -163.062765  8  6  7  75       
PG10 -23834.092225 -10725.957828  -5403.821674    -36.130646  8  5 10 122       
PG11  23262.499369 -12551.355524   2407.921665   -189.964353  8  6  5  88       
PG12  -1567.132377 -18068.892858 -19712.271855   -373.667115  8  8  6 106       
PG13  13026.167052 -18203.646988  13960.580806    517.209318  8  5  5 117       
PG14  23021.802889  13082.902119  -2918.642067     50.446132  9  8  5  65       
PG15   3702.284039 -24676.402289   8250.604536     37.793987  5  8  4  62       
PG16 -15110.969023   6440.199848  20659.485080   -502.643568  6  8  7 117       
PG17  13212.202689   9088.763057 -20725.834280    714.051159  7  6  6 105       
PG18 -13342.338668  -9302.823592  21026.352966   -258.234608  8  8  9 102       
PG19  15188.149636   -398.229164 -21990.940828    314.313198  9  6  6 101       
PG20  18941.532879  -5785.969109  17641.278561    434.632707  9  6  7 105       
PG21 -13090.090036  18612.798020 -12393.344197    153.919213  5  8  9  99       
PG22 -15191.889274   4635.772493 -20810.216618    478.049234  7  9  8 108       
PG23 -19825.271719 -16674.027833   6220.640084     22.674675  9  7 11 124       
PG24   8322.249158 -19490.918501 -16105.765401   -181.652757  9  7  8 115       
PG25 -13399.076216 -19189.378625 -13121.748003    441.441934  7  7  7 114       
PG26 -23157.317523  -1543.974213  13099.661210    241.022294  8  8  8 112       
PG27 -12614.983499  14983.061467  17490.508051     41.596114  3  7  7 129       
PG28 -22906.789580   2408.011186 -13245.858374     75.647485  7  9  7 108       
PG29  -3793.496002 -24336.548221   9772.965649   -598.704341  8  7  6 119       
PG30  20182.135869   3810.109901  17090.002573   -518.255858  8  7  4 105       
PG31 -24922.114519   8978.242245  -4268.641322   -215.712584  5  8  6  99       
PG32 -14684.744050  -5846.979227 -21192.836020   -471.778775  6  7  7 122       
EOF
